SIRIUS-1                
<<<<<<< .mine
1 26390U 00035A   13102.19330361 -.00000056  00000-0  00000+0 0  1613
2 26390  60.3209 243.8462 2671310 269.6008  20.9568  1.00280570 46825
=======
1 26390U 00035A   13109.37397314 -.00000028  00000-0  00000+0 0  1643
2 26390  60.3143 243.7705 2668918 269.5370  93.3724  1.00280500 46902
>>>>>>> .r6620
SIRIUS-2                
<<<<<<< .mine
1 26483U 00051A   13103.22843416  .00000092  00000-0  00000+0 0  7951
2 26483  64.0494 123.8506 2679981 270.4703 152.6253  1.00276330 46176
=======
1 26483U 00051A   13105.34831984  .00000104  00000-0  00000+0 0  7968
2 26483  64.0504 123.8326 2680715 270.4378 197.9374  1.00276083 46196
>>>>>>> .r6620
SIRIUS-3                
<<<<<<< .mine
1 26626U 00077A   13104.18369694 -.00000153  00000-0  00000+0 0  1048
2 26626  64.3948   3.9728 2691435 269.0112 261.0004  1.00273192 45319
=======
1 26626U 00077A   13110.16805451 -.00000120  00000-0  00000+0 0  1065
2 26626  64.3974   3.9042 2669732 270.1080 259.3626  1.00277449 45374
>>>>>>> .r6620
XM-2 (ROCK)             
<<<<<<< .mine
1 26724U 01012A   13104.15083245 -.00000036  00000-0  00000+0 0  4929
2 26724   0.1170 290.3942 0003636  17.9005 193.2297  1.00272526 44300
=======
1 26724U 01012A   13110.20648644 -.00000030  00000-0  00000+0 0  4971
2 26724   0.1227 288.2479 0003761  19.6161 219.6837  1.00273222 44368
>>>>>>> .r6620
XM-1 (ROLL)             
<<<<<<< .mine
1 26761U 01018A   13104.15083278 -.00000036  00000-0  00000+0 0  3325
2 26761   0.0911 262.9260 0002889 320.3107 278.2635  1.00272323 43779
=======
1 26761U 01018A   13109.31779753 -.00000031  00000-0  00000+0 0  3378
2 26761   0.0914 262.3148 0002900 322.8704 341.5342  1.00273134 43821
>>>>>>> .r6620
XM-3 (RHYTHM)           
<<<<<<< .mine
1 28626U 05008A   13103.36762863 -.00000219  00000-0  10000-3 0  3593
2 28626   0.0350  25.9610 0000208 144.4521  78.5092  1.00271248 29803
=======
1 28626U 05008A   13107.08281652 -.00000215  00000-0  10000-3 0  3617
2 28626   0.0426  30.9327 0000175 276.6837 202.4350  1.00270752 29847
>>>>>>> .r6620
XM-4 (BLUES)            
<<<<<<< .mine
1 29520U 06049A   13103.14837328 -.00000037  00000-0  10000-3 0   267
2 29520   0.0264  46.6225 0000456 187.0255 265.9881  1.00273215 23746
=======
1 29520U 06049A   13109.32443712 -.00000031  00000-0  10000-3 0   313
2 29520   0.0303  56.0771 0000022 304.2953 208.7332  1.00272192 23804
>>>>>>> .r6620
